NORAD_CAT_ID,OBJECT_NAME,OBJECT_TYPE,EPOCH,MEAN_MOTION,ECCENTRICITY,INCLINATION,RA_OF_ASC_NODE,ARG_OF_PERICENTER,MEAN_ANOMALY,BSTAR,MEAN_MOTION_DOT,MEAN_MOTION_DDOT,TLE_LINE0,TLE_LINE1,TLE_LINE2,SEMIMAJOR_AXIS,PERIOD,APOGEE,PERIGEE,DECAYED
54080.0,STARLINK-5160,PAYLOAD,2024-07-09 05:17:33,15.08838049,0.0001395,53.216,190.8102,85.7712,274.3439,2.0207e-05,3.4e-07,0.0,0 STARLINK-5160,1 54080U 22136AF  24191.22052685  .00000034  00000-0  20207-4 0  9990,2 54080  53.2160 190.8102 0001395  85.7712 274.3439 15.08838049 95535,6917.886,95.438,540.716,538.786,0.0
54080.0,STARLINK-5160,PAYLOAD,2024-07-09 06:52:56,15.08838408,0.0001402,53.216,190.5127,86.1622,273.9531,2.1824e-05,5.9e-07,0.0,0 STARLINK-5160,1 54080U 22136AF  24191.28676653  .00000059  00000-0  21824-4 0  9996,2 54080  53.2160 190.5127 0001402  86.1622 273.9531 15.08838408 95068,6917.885,95.438,540.72,538.78,0.0
54080.0,STARLINK-5160,PAYLOAD,2024-07-10 06:43:44,15.08835158,0.0001362,53.2155,186.0522,84.6619,275.4529,-5.1646e-06,-3.7e-06,0.0,0 STARLINK-5160,1 54080U 22136AF  24192.28037164 -.00000370  00000-0 -51646-5 0  9999,2 54080  53.2155 186.0522 0001362  84.6619 275.4529 15.08835158 95697,6917.895,95.438,540.702,538.818,0.0
54080.0,STARLINK-5160,PAYLOAD,2024-07-10 16:16:02,15.08837185,0.0001361,53.2156,184.2675,82.9944,277.1203,2.9262e-05,1.78e-06,0.0,0 STARLINK-5160,1 54080U 22136AF  24192.67781018  .00000178  00000-0  29262-4 0  9998,2 54080  53.2156 184.2675 0001361  82.9944 277.1203 15.08837185 95272,6917.889,95.438,540.696,538.812,0.0
54080.0,STARLINK-5160,PAYLOAD,2024-07-11 06:34:30,15.08841707,0.0001323,53.2154,181.5912,82.9757,277.1385,8.5765e-05,1.077e-05,0.0,0 STARLINK-5160,1 54080U 22136AF  24193.27396608  .00001077  00000-0  85765-4 0  9991,2 54080  53.2154 181.5912 0001323  82.9757 277.1385 15.08841707 95360,6917.875,95.437,540.655,538.825,0.0
54080.0,STARLINK-5160,PAYLOAD,2024-07-12 04:49:55,15.08835892,0.0001329,53.2155,177.428,86.1617,273.9527,5.5531e-05,5.96e-06,0.0,0 STARLINK-5160,1 54080U 22136AF  24194.20133283  .00000596  00000-0  55531-4 0  9996,2 54080  53.2155 177.4280 0001329  86.1617 273.9527 15.08835892 95988,6917.893,95.438,540.677,538.839,0.0
54080.0,STARLINK-5160,PAYLOAD,2024-07-12 08:00:41,15.08837022,0.0001332,53.2154,176.833,84.0396,276.0747,6.1609e-05,6.93e-06,0.0,0 STARLINK-5160,1 54080U 22136AF  24194.33381229  .00000693  00000-0  61609-4 0  9996,2 54080  53.2154 176.8330 0001332  84.0396 276.0747 15.08837022 95526,6917.889,95.438,540.676,538.833,0.0
54080.0,STARLINK-5160,PAYLOAD,2024-07-12 15:57:37,15.08838168,0.0001309,53.2153,175.3463,87.5285,272.5857,4.776e-05,4.72e-06,0.0,0 STARLINK-5160,1 54080U 22136AF  24194.66501255  .00000472  00000-0  47760-4 0  9992,2 54080  53.2153 175.3463 0001309  87.5285 272.5857 15.08838168 95575,6917.886,95.438,540.657,538.845,0.0
54080.0,STARLINK-5160,PAYLOAD,2024-07-13 06:16:04,15.0884458,0.0001331,53.2154,172.67,88.8637,271.2508,6.1447e-05,6.9e-06,0.0,0 STARLINK-5160,1 54080U 22136AF  24195.26116769  .00000690  00000-0  61447-4 0  9991,2 54080  53.2154 172.6700 0001331  88.8637 271.2508 15.08844580 96148,6917.866,95.437,540.652,538.811,0.0
54080.0,STARLINK-5160,PAYLOAD,2024-07-13 22:09:56,15.0883666,0.000128,53.2149,169.696,88.4928,271.6211,3.8304e-05,3.22e-06,0.0,0 STARLINK-5160,1 54080U 22136AF  24195.92357397  .00000322  00000-0  38304-4 0  9996,2 54080  53.2149 169.6960 0001280  88.4928 271.6211 15.08836660 95760,6917.891,95.438,540.641,538.87,0.0
54080.0,STARLINK-5160,PAYLOAD,2024-07-14 04:31:29,15.08837743,0.0001318,53.215,168.5067,87.5229,272.5914,4.7451e-05,4.67e-06,0.0,0 STARLINK-5160,1 54080U 22136AF  24196.18853352  .00000467  00000-0  47451-4 0  9990,2 54080  53.2150 168.5067 0001318  87.5229 272.5914 15.08837743 96285,6917.887,95.438,540.664,538.841,0.0
54080.0,STARLINK-5160,PAYLOAD,2024-07-14 07:42:15,15.08842146,0.0001379,53.2157,167.9117,87.5538,272.5612,7.5435e-05,9.13e-06,0.0,0 STARLINK-5160,1 54080U 22136AF  24196.32101013  .00000913  00000-0  75435-4 0  9995,2 54080  53.2157 167.9117 0001379  87.5538 272.5612 15.08842146 95828,6917.874,95.437,540.693,538.785,0.0
54080.0,STARLINK-5160,PAYLOAD,2024-07-14 15:39:10,15.0884227,0.0001355,53.2154,166.425,87.6352,272.4795,7.3961e-05,8.89e-06,0.0,0 STARLINK-5160,1 54080U 22136AF  24196.65220979  .00000889  00000-0  73961-4 0  9998,2 54080  53.2154 166.4250 0001355  87.6352 272.4795 15.08842270 95870,6917.873,95.437,540.676,538.801,0.0
54080.0,STARLINK-5160,PAYLOAD,2024-07-15 04:22:15,15.0885076,0.000143,53.2163,164.0447,95.8779,264.2376,6.6845e-05,7.76e-06,0.0,0 STARLINK-5160,1 54080U 22136AF  24197.18212433  .00000776  00000-0  66845-4 0  9991,2 54080  53.2163 164.0447 0001430  95.8779 264.2376 15.08850760 96430,6917.848,95.437,540.702,538.723,0.0
54080.0,STARLINK-5160,PAYLOAD,2024-07-15 21:51:31,15.08824544,0.0001506,53.2163,160.7734,98.168,261.9483,0.00012677,1.729e-05,0.0,0 STARLINK-5160,1 54080U 22136AF  24197.91077880  .00001729  00000-0  12677-3 0  9999,2 54080  53.2163 160.7734 0001506  98.1680 261.9483 15.08824544 96549,6917.928,95.439,540.834,538.751,0.0
54080.0,STARLINK-5160,PAYLOAD,2024-07-16 04:13:03,15.08842312,0.0001319,53.2166,159.5843,98.7245,261.3896,5.1671e-05,5.35e-06,0.0,0 STARLINK-5160,1 54080U 22136AF  24198.17573041  .00000535  00000-0  51671-4 0  9990,2 54080  53.2166 159.5843 0001319  98.7245 261.3896 15.08842312 96583,6917.873,95.437,540.651,538.826,0.0
54080.0,STARLINK-5160,PAYLOAD,2024-07-16 07:23:49,15.08843264,0.0001325,53.2165,158.9897,98.442,261.6722,6.0533e-05,6.76e-06,0.0,0 STARLINK-5160,1 54080U 22136AF  24198.30820949  .00000676  00000-0  60533-4 0  9990,2 54080  53.2165 158.9897 0001325  98.4420 261.6722 15.08843264 96121,6917.87,95.437,540.652,538.819,0.0
54080.0,STARLINK-5160,PAYLOAD,2024-07-17 04:03:50,15.08837396,0.0001435,53.2164,155.1281,96.4815,263.634,1.5196e-05,-4.6e-07,0.0,0 STARLINK-5160,1 54080U 22136AF  24199.16933692 -.00000046  00000-0  15196-4 0  9992,2 54080  53.2164 155.1281 0001435  96.4815 263.6340 15.08837396 96738,6917.888,95.438,540.746,538.761,0.0
54080.0,STARLINK-5160,PAYLOAD,2024-07-17 13:36:09,15.0883657,0.0001336,53.2153,153.3417,91.4841,268.6304,4.6809e-05,4.57e-06,0.0,0 STARLINK-5160,1 54080U 22136AF  24199.56677869  .00000457  00000-0  46809-4 0  9997,2 54080  53.2153 153.3417 0001336  91.4841 268.6304 15.08836570 96313,6917.891,95.438,540.68,538.832,0.0
54080.0,STARLINK-5160,PAYLOAD,2024-07-18 05:30:00,15.08846314,0.0001235,53.2176,150.3697,94.6755,265.4378,0.00013654,1.886e-05,0.0,0 STARLINK-5160,1 54080U 22136AF  24200.22917277  .00001886  00000-0  13654-3 0  9991,2 54080  53.2176 150.3697 0001235  94.6755 265.4378 15.08846314 96898,6917.861,95.437,540.58,538.872,0.0
54080.0,STARLINK-5160,PAYLOAD,2024-07-18 13:26:56,15.08844673,0.0001079,53.2169,148.8799,86.4111,273.7005,9.2288e-05,1.181e-05,0.0,0 STARLINK-5160,1 54080U 22136AF  24200.56037318  .00001181  00000-0  92288-4 0  9996,2 54080  53.2169 148.8799 0001079  86.4111 273.7005 15.08844673 96464,6917.866,95.437,540.478,538.985,0.0
54080.0,STARLINK-5160,PAYLOAD,2024-07-19 05:20:47,15.08844508,0.0001101,53.2152,145.9066,97.2639,262.8478,0.00010354,1.361e-05,0.0,0 STARLINK-5160,1 54080U 22136AF  24201.22277663  .00001361  00000-0  10354-3 0  9992,2 54080  53.2152 145.9066 0001101  97.2639 262.8478 15.08844508 97047,6917.867,95.437,540.493,538.97,0.0
54080.0,STARLINK-5160,PAYLOAD,2024-07-19 13:17:43,15.08840823,0.0001136,53.2151,144.4206,80.2344,279.8776,7.5506e-05,9.14e-06,0.0,0 STARLINK-5160,1 54080U 22136AF  24201.55397945  .00000914  00000-0  75506-4 0  9998,2 54080  53.2151 144.4206 0001136  80.2344 279.8776 15.08840823 96616,6917.878,95.438,540.529,538.957,0.0
54080.0,STARLINK-5160,PAYLOAD,2024-07-20 05:11:35,15.0883987,0.000147,53.2171,141.4463,86.713,273.403,5.157e-05,5.33e-06,0.0,0 STARLINK-5160,1 54080U 22136AF  24202.21638328  .00000533  00000-0  51570-4 0  9997,2 54080  53.2171 141.4463 0001470  86.7130 273.4030 15.08839870 97192,6917.881,95.438,540.763,538.729,0.0
54080.0,STARLINK-5160,PAYLOAD,2024-07-20 13:08:30,15.08849824,0.0001589,53.2176,139.9579,77.621,282.496,-0.00010586,-1.973e-05,0.0,0 STARLINK-5160,1 54080U 22136AF  24202.54758078 -.00001973  00000-0 -10586-3 0  9990,2 54080  53.2176 139.9579 0001589  77.6210 282.4960 15.08849824 96760,6917.85,95.437,540.815,538.616,0.0
54080.0,STARLINK-5160,PAYLOAD,2024-07-21 03:26:58,15.08851109,0.0001382,53.2166,137.284,79.1518,280.963,0.0001355,1.87e-05,0.0,0 STARLINK-5160,1 54080U 22136AF  24203.14373518  .00001870  00000-0  13550-3 0  9997,2 54080  53.2166 137.2840 0001382  79.1518 280.9630 15.08851109 97330,6917.846,95.437,540.667,538.755,0.0
54080.0,STARLINK-5160,PAYLOAD,2024-07-22 01:42:23,15.08840939,0.0001694,53.2161,133.1194,68.663,291.4543,4.9745e-05,5.04e-06,0.0,0 STARLINK-5160,1 54080U 22136AF  24204.07110551  .00000504  00000-0  49745-4 0  9995,2 54080  53.2161 133.1194 0001694  68.6630 291.4543 15.08840939 97470,6917.878,95.437,540.914,538.571,0.0
54080.0,STARLINK-5160,PAYLOAD,2024-07-22 22:22:23,15.08842392,0.0001366,53.2159,129.2559,93.8284,266.2865,9.676e-05,1.252e-05,0.0,0 STARLINK-5160,1 54080U 22136AF  24204.93222044  .00001252  00000-0  96760-4 0  9991,2 54080  53.2159 129.2559 0001366  93.8284 266.2865 15.08842392 97123,6917.873,95.437,540.683,538.793,0.0
54080.0,STARLINK-5160,PAYLOAD,2024-07-23 01:33:10,15.08822616,0.0001549,53.2161,128.6563,93.4472,266.6697,0.0004635,7.093e-05,0.0,0 STARLINK-5160,1 54080U 22136AF  24205.06470121  .00007093  00000-0  46350-3 0  9995,2 54080  53.2161 128.6563 0001549  93.4472 266.6697 15.08822616 97148,6917.934,95.439,540.87,538.727,0.0
54080.0,STARLINK-5160,PAYLOAD,2024-07-24 04:34:44,15.08833912,0.000148,53.2162,123.6047,114.3738,245.7409,-1.3158e-05,-4.97e-06,0.0,0 STARLINK-5160,1 54080U 22136AF  24206.19079064 -.00000497  00000-0 -13158-4 0  9995,2 54080  53.2162 123.6047 0001480 114.3738 245.7409 15.08833912 97794,6917.899,95.438,540.788,538.74,0.0
